{
    "links": {
        "self": "http://www.neowsapp.com/rest/v1/neo/3163743?api_key=iIulBulltgU6a56xZRHN4H3l9WmuAYTsLGpBGhQ2"
    },
    "id": "3163743",
    "neo_reference_id": "3163743",
    "name": "(2003 UM3)",
    "designation": "2003 UM3",
    "nasa_jpl_url": "http://ssd.jpl.nasa.gov/sbdb.cgi?sstr=3163743",
    "absolute_magnitude_h": 28.1,
    "estimated_diameter": {
        "kilometers": {
            "estimated_diameter_min": 0.0063760979,
            "estimated_diameter_max": 0.0142573883
        },
        "meters": {
            "estimated_diameter_min": 6.3760978988,
            "estimated_diameter_max": 14.2573883328
        },
        "miles": {
            "estimated_diameter_min": 0.0039619223,
            "estimated_diameter_max": 0.0088591276
        },
        "feet": {
            "estimated_diameter_min": 20.9189570301,
            "estimated_diameter_max": 46.7762099378
        }
    },
    "is_potentially_hazardous_asteroid": false,
    "close_approach_data": [
        {
            "close_approach_date": "2003-10-12",
            "close_approach_date_full": "2003-Oct-12 01:25",
            "epoch_date_close_approach": 1065921900000,
            "relative_velocity": {
                "kilometers_per_second": "12.8497485336",
                "kilometers_per_hour": "46259.0947208491",
                "miles_per_hour": "28743.6024947409"
            },
            "miss_distance": {
                "astronomical": "0.0018617675",
                "lunar": "0.7242275575",
                "kilometers": "278516.452435225",
                "miles": "173062.098547105"
            },
            "orbiting_body": "Earth"
        },
        {
            "close_approach_date": "2003-10-12",
            "close_approach_date_full": "2003-Oct-12 09:13",
            "epoch_date_close_approach": 1065949980000,
            "relative_velocity": {
                "kilometers_per_second": "13.0931203576",
                "kilometers_per_hour": "47135.233287311",
                "miles_per_hour": "29288.000927885"
            },
            "miss_distance": {
                "astronomical": "0.0026648182",
                "lunar": "1.0366142798",
                "kilometers": "398651.126657234",
                "miles": "247710.3236244692"
            },
            "orbiting_body": "Moon"
        }
    ],
    "orbital_data": {
        "orbit_id": "6",
        "orbit_determination_date": "2017-04-06 09:13:41",
        "first_observation_date": "2003-10-17",
        "last_observation_date": "2003-10-18",
        "data_arc_in_days": 1,
        "observations_used": 12,
        "orbit_uncertainty": "9",
        "minimum_orbit_intersection": ".000224438",
        "jupiter_tisserand_invariant": "4.720",
        "epoch_osculation": "2452930.5",
        "eccentricity": ".439431178515723",
        "semi_major_axis": "1.369634690492366",
        "inclination": "1.510558850991572",
        "ascending_node_longitude": "17.64599570172294",
        "orbital_period": "585.4712154862792",
        "perihelion_distance": ".7677745043132879",
        "perihelion_argument": "284.5984909590873",
        "aphelion_distance": "1.971494876671443",
        "perihelion_time": "2452872.357733781958",
        "mean_anomaly": "35.75105877939725",
        "mean_motion": ".6148893241506196",
        "equinox": "J2000",
        "orbit_class": {
            "orbit_class_type": "APO",
            "orbit_class_description": "Near-Earth asteroid orbits which cross the Earth’s orbit similar to that of 1862 Apollo",
            "orbit_class_range": "a (semi-major axis) > 1.0 AU; q (perihelion) < 1.017 AU"
        }
    },
    "is_sentry_object": false
}